{
  "GT": {
    "GT": [
      {"city": "ZONA 1", "zip": "01001"},
      {"city": "ZONA 2", "zip": "01002"},
      {"city": "ZONA 3", "zip": "01003"},
      {"city": "ZONA 4", "zip": "01004"},
      {"city": "ZONA 5", "zip": "01005"},
      {"city": "ZONA 6", "zip": "01006"},
      {"city": "ZONA 7", "zip": "01007"},
      {"city": "ZONA 8", "zip": "01008"},
      {"city": "ZONA 9", "zip": "01009"},
      {"city": "ZONA 10", "zip": "01010"},
      {"city": "ZONA 11", "zip": "01011"},
      {"city": "ZONA 12", "zip": "01012"},
      {"city": "ZONA 13", "zip": "01013"},
      {"city": "ZONA 14", "zip": "01014"},
      {"city": "ZONA 15", "zip": "01015"},
      {"city": "ZONA 16", "zip": "01016"},
      {"city": "ZONA 17", "zip": "01017"},
      {"city": "ZONA 18", "zip": "01018"},
      {"city": "ZONA 19", "zip": "01019"},
      {"city": "ZONA 21", "zip": "01021"},
      {"city": "SANTA CATARINA PINULA", "zip": "01051"},
      {"city": "SAN JOSE PINULA", "zip": "01052"},
      {"city": "SAN JOSE DEL GOLFO", "zip": "01053"},
      {"city": "PALENCIA", "zip": "01054"},
      {"city": "CHINAUTLA", "zip": "01055"},
      {"city": "SAN PEDRO AYAMPUC", "zip": "01056"},
      {"city": "MIXCO", "zip": "01057"},
      {"city": "SAN PEDRO SACATEPEQUEZ", "zip": "01058"},
      {"city": "SAN JUAN SACATEPEQUEZ", "zip": "01059"},
      {"city": "SAN RAYMUNDO", "zip": "01060"},
      {"city": "CHUARRANCHO", "zip": "01061"},
      {"city": "FRAIJANES", "zip": "01062"},
      {"city": "AMATITLAN", "zip": "01063"},
      {"city": "VILLA NUEVA", "zip": "01064"},
      {"city": "VILLA CANALES", "zip": "01065"},
      {"city": "PETAPA", "zip": "01066"},
      {"city": "CANALITOS", "zip": "01067"},
      {"city": "EL FISCAL", "zip": "01068"},
      {"city": "BOCA DEL MONTE", "zip": "01069"},
      {"city": "VUELTA GRANDE", "zip": "01070"},
      {"city": "TRAPICHE GRANDE", "zip": "01071"},
      {"city": "SANTA ELENA BARILLAS", "zip": "01072"},
      {"city": "PUERTA PARADA", "zip": "01073"}
    ],
    "EP": [
      {"city": "GUASTATOYA", "zip": "02001"},
      {"city": "MORAZAN", "zip": "02002"},
      {"city": "SAN AGUSTIN ACASAGUASTLAN", "zip": "02003"},
      {"city": "SAN CRISTOBAL ACASAGUASTLAN", "zip": "02004"},
      {"city": "EL JICARO", "zip": "02005"},
      {"city": "SANSARE", "zip": "02006"},
      {"city": "SANARATE", "zip": "02007"},
      {"city": "SAN ANTONIO LA PAZ", "zip": "02008"},
      {"city": "TULUMAJILLO", "zip": "02009"},
      {"city": "ESTACION JALAPA", "zip": "02010"},
      {"city": "TULUMAJE", "zip": "02011"},
      {"city": "ESTANCIA DE LA VIRGEN", "zip": "02012"},
      {"city": "PASO DE LOS JALAPAS", "zip": "02013"},
      {"city": "SANTA RITA", "zip": "02014"},
      {"city": "EL RANCHO", "zip": "02015"}
    ],
    "SA": [
      {"city": "ANTIGUA GUATEMALA", "zip": "03001"},
      {"city": "JOCOTENANGO", "zip": "03002"},
      {"city": "PASTORES", "zip": "03003"},
      {"city": "SUMPANGO", "zip": "03004"},
      {"city": "SANTO DOMINGO XENACOJ", "zip": "03005"},
      {"city": "SANTIAGO SACATEPEQUEZ", "zip": "03006"},
      {"city": "SAN BARTOLOME MILPAS ALTAS", "zip": "03007"},
      {"city": "SAN LUCAS SACATEPEQUEZ", "zip": "03008"},
      {"city": "SANTA LUCIA MILPAS ALTAS", "zip": "03009"},
      {"city": "MAGDALENA MILPAS ALTAS", "zip": "03010"},
      {"city": "SANTA MARIA DE JESUS", "zip": "03011"},
      {"city": "CIUDAD VIEJA", "zip": "03012"},
      {"city": "SAN MIGUEL DUENAS", "zip": "03013"},
      {"city": "ALOTENANGO", "zip": "03014"},
      {"city": "SAN ANTONIO AGUAS CALIENTES", "zip": "03015"},
      {"city": "SANTA CATARINA BARAHONA", "zip": "03016"},
      {"city": "SANTA MARIA CAUQUE", "zip": "03017"}
    ],
    "CM": [
      {"city": "CHIMALTENANGO", "zip": "04001"},
      {"city": "SAN JOSE POAQUIL", "zip": "04002"},
      {"city": "SAN MARTIN JILOTEPEQUE", "zip": "04003"},
      {"city": "COMALAPA", "zip": "04004"},
      {"city": "SANTA APOLONIA", "zip": "04005"},
      {"city": "TECPAN GUATEMALA", "zip": "04006"},
      {"city": "PATZICIA", "zip": "04007"},
      {"city": "PATZUN", "zip": "04008"},
      {"city": "POCHUTA", "zip": "04009"},
      {"city": "SAN ANDRES ITZAPA", "zip": "04010"},
      {"city": "SAN JUAN COMALAPA", "zip": "04011"},
      {"city": "SANTA CRUZ BALANYA", "zip": "04012"},
      {"city": "ACATENANGO", "zip": "04013"},
      {"city": "YEPOCAPA", "zip": "04014"},
      {"city": "SAN PEDRO YEPOCAPA", "zip": "04015"},
      {"city": "SAN MIGUEL DUENAS", "zip": "04016"},
      {"city": "ZARAGOZA", "zip": "04017"},
      {"city": "EL TEJAR", "zip": "04018"},
      {"city": "PARRAMOS", "zip": "04019"}
    ],
    "ES": [
      {"city": "ESCUINTLA", "zip": "05001"},
      {"city": "SANTA LUCIA COTZUMALGUAPA", "zip": "05002"},
      {"city": "LA DEMOCRACIA", "zip": "05003"},
      {"city": "SIQUINALA", "zip": "05004"},
      {"city": "MASAGUA", "zip": "05005"},
      {"city": "TIQUISATE", "zip": "05006"},
      {"city": "LA GOMERA", "zip": "05007"},
      {"city": "GUANAGAZAPA", "zip": "05008"},
      {"city": "SAN JOSE", "zip": "05009"},
      {"city": "IZTAPA", "zip": "05010"},
      {"city": "PALIN", "zip": "05011"},
      {"city": "SAN VICENTE PACAYA", "zip": "05012"},
      {"city": "NUEVA CONCEPCION", "zip": "05013"}
    ],
    "SR": [
      {"city": "CUILAPA", "zip": "06001"},
      {"city": "BARBERENA", "zip": "06002"},
      {"city": "SANTA ROSA DE LIMA", "zip": "06003"},
      {"city": "CASILLAS", "zip": "06004"},
      {"city": "SAN RAFAEL LAS FLORES", "zip": "06005"},
      {"city": "ORATORIO", "zip": "06006"},
      {"city": "SAN JUAN TECUACO", "zip": "06007"},
      {"city": "CHIQUIMULILLA", "zip": "06008"},
      {"city": "TAXISCO", "zip": "06009"},
      {"city": "SANTA MARIA IXHUATAN", "zip": "06010"},
      {"city": "GUAZACAPAN", "zip": "06011"},
      {"city": "SANTA CRUZ NARANJO", "zip": "06012"},
      {"city": "PUEBLO NUEVO VINAS", "zip": "06013"},
      {"city": "NUEVA SANTA ROSA", "zip": "06014"}
    ],
    "SO": [
      {"city": "SOLOLA", "zip": "07001"},
      {"city": "SAN JOSE CHACAYA", "zip": "07002"},
      {"city": "SANTA MARIA VISITACION", "zip": "07003"},
      {"city": "SANTA LUCIA UTATLAN", "zip": "07004"},
      {"city": "NAHUALA", "zip": "07005"},
      {"city": "SANTA CATARINA IXTAHUACAN", "zip": "07006"},
      {"city": "SANTA CLARA LA LAGUNA", "zip": "07007"},
      {"city": "CONCEPCION", "zip": "07008"},
      {"city": "SAN ANDRES SEMETABAJ", "zip": "07009"},
      {"city": "PANAJACHEL", "zip": "07010"},
      {"city": "SANTA CATARINA PALOPO", "zip": "07011"},
      {"city": "SAN ANTONIO PALOPO", "zip": "07012"},
      {"city": "SAN LUCAS TOLIMAN", "zip": "07013"},
      {"city": "SANTA CRUZ LA LAGUNA", "zip": "07014"},
      {"city": "SAN MARCOS LA LAGUNA", "zip": "07015"},
      {"city": "SAN JUAN LA LAGUNA", "zip": "07016"},
      {"city": "SAN PEDRO LA LAGUNA", "zip": "07017"},
      {"city": "SANTIAGO ATITLAN", "zip": "07018"},
      {"city": "SAN PABLO LA LAGUNA", "zip": "07019"}
    ],
    "TO": [
      {"city": "TOTONICAPAN", "zip": "08001"},
      {"city": "SAN CRISTOBAL TOTONICAPAN", "zip": "08002"},
      {"city": "SAN FRANCISCO EL ALTO", "zip": "08003"},
      {"city": "SAN ANDRES XECUL", "zip": "08004"},
      {"city": "MOMOSTENANGO", "zip": "08005"},
      {"city": "SANTA MARIA CHIQUIMULA", "zip": "08006"},
      {"city": "SANTA LUCIA LA REFORMA", "zip": "08007"},
      {"city": "SAN BARTOLO", "zip": "08008"}
    ],
    "QT": [
      {"city": "QUETZALTENANGO", "zip": "09001"},
      {"city": "SALCAJA", "zip": "09002"},
      {"city": "OLINTEPEQUE", "zip": "09003"},
      {"city": "SAN CARLOS SIJA", "zip": "09004"},
      {"city": "SIBILIA", "zip": "09005"},
      {"city": "CABRICAN", "zip": "09006"},
      {"city": "CAJOLA", "zip": "09007"},
      {"city": "SAN MIGUEL SIGUILA", "zip": "09008"},
      {"city": "OSTUNCALCO", "zip": "09009"},
      {"city": "SAN MATEO", "zip": "09010"},
      {"city": "CONCEPCION CHIQUIRICHAPA", "zip": "09011"},
      {"city": "SAN MARTIN SACATEPEQUEZ", "zip": "09012"},
      {"city": "ALMOLONGA", "zip": "09013"},
      {"city": "CANTEL", "zip": "09014"},
      {"city": "HUITAN", "zip": "09015"},
      {"city": "ZUNIL", "zip": "09016"},
      {"city": "COLOMBA", "zip": "09017"},
      {"city": "SAN FRANCISCO LA UNION", "zip": "09018"},
      {"city": "EL PALMAR", "zip": "09019"},
      {"city": "COATEPEQUE", "zip": "09020"},
      {"city": "GENOVA", "zip": "09021"},
      {"city": "FLORES COSTA CUCA", "zip": "09022"},
      {"city": "LA ESPERANZA", "zip": "09023"},
      {"city": "PALESTINA DE LOS ALTOS", "zip": "09024"}
    ],
    "SU": [
      {"city": "MAZATENANGO", "zip": "10001"},
      {"city": "CUYOTENANGO", "zip": "10002"},
      {"city": "SAN FRANCISCO ZAPOTITLAN", "zip": "10003"},
      {"city": "SAN BERNARDINO", "zip": "10004"},
      {"city": "SAN JOSE EL IDOLO", "zip": "10005"},
      {"city": "SANTO DOMINGO SUCHITEPEQUEZ", "zip": "10006"},
      {"city": "SAN LORENZO", "zip": "10007"},
      {"city": "SAMAYAC", "zip": "10008"},
      {"city": "SAN PABLO JOCOPILAS", "zip": "10009"},
      {"city": "SAN ANTONIO SUCHITEPEQUEZ", "zip": "10010"},
      {"city": "SAN MIGUEL PANAN", "zip": "10011"},
      {"city": "SAN GABRIEL", "zip": "10012"},
      {"city": "CHICACAO", "zip": "10013"},
      {"city": "PATULUL", "zip": "10014"},
      {"city": "SANTA BARBARA", "zip": "10015"},
      {"city": "SAN JUAN BAUTISTA", "zip": "10016"},
      {"city": "SANTO TOMAS LA UNION", "zip": "10017"},
      {"city": "ZUNILITO", "zip": "10018"},
      {"city": "PUEBLO NUEVO", "zip": "10019"},
      {"city": "RIO BRAVO", "zip": "10020"}
    ],
    "RT": [
      {"city": "RETALHULEU", "zip": "11001"},
      {"city": "SAN SEBASTIAN", "zip": "11002"},
      {"city": "SANTA CRUZ MULUA", "zip": "11003"},
      {"city": "SAN MARTIN ZAPOTITLAN", "zip": "11004"},
      {"city": "SAN FELIPE", "zip": "11005"},
      {"city": "SAN ANDRES VILLA SECA", "zip": "11006"},
      {"city": "CHAMPERICO", "zip": "11007"},
      {"city": "NUEVO SAN CARLOS", "zip": "11008"},
      {"city": "EL ASINTAL", "zip": "11009"}
    ],
    "SM": [
      {"city": "SAN MARCOS", "zip": "12001"},
      {"city": "SAN PEDRO SACATEPEQUEZ", "zip": "12002"},
      {"city": "SAN ANTONIO SACATEPEQUEZ", "zip": "12003"},
      {"city": "COMITANCILLO", "zip": "12004"},
      {"city": "SAN MIGUEL IXTAHUACAN", "zip": "12005"},
      {"city": "CONCEPCION TUTUAPA", "zip": "12006"},
      {"city": "TACANA", "zip": "12007"},
      {"city": "SIBINAL", "zip": "12008"},
      {"city": "TAJUMULCO", "zip": "12009"},
      {"city": "TEJUTLA", "zip": "12010"},
      {"city": "SAN RAFAEL PIE DE LA CUESTA", "zip": "12011"},
      {"city": "NUEVO PROGRESO", "zip": "12012"},
      {"city": "EL TUMBADOR", "zip": "12013"},
      {"city": "SAN JOSE OJETENAM", "zip": "12014"},
      {"city": "SAN CRISTOBAL CUCHO", "zip": "12015"},
      {"city": "SIPACAPA", "zip": "12016"},
      {"city": "ESQUIPULAS PALO GORDO", "zip": "12017"},
      {"city": "RIO BLANCO", "zip": "12018"},
      {"city": "SAN LORENZO", "zip": "12019"},
      {"city": "LA REFORMA", "zip": "12020"},
      {"city": "PAJAPITA", "zip": "12021"},
      {"city": "IXCHIGUAN", "zip": "12022"},
      {"city": "AYUTLA", "zip": "12023"},
      {"city": "OCOS", "zip": "12024"},
      {"city": "SAN PABLO", "zip": "12025"},
      {"city": "EL QUETZAL", "zip": "12026"},
      {"city": "LA BLANCA", "zip": "12027"},
      {"city": "COLOMBIA", "zip": "12028"},
      {"city": "MALACATAN", "zip": "12029"},
      {"city": "CATARINA", "zip": "12030"},
      {"city": "EL RODEO", "zip": "12031"}
    ],
    "HU": [
      {"city": "HUEHUETENANGO", "zip": "13001"},
      {"city": "CHIANTLA", "zip": "13002"},
      {"city": "MALACATANCITO", "zip": "13003"},
      {"city": "CUILCO", "zip": "13004"},
      {"city": "NENTON", "zip": "13005"},
      {"city": "SAN PEDRO NECTA", "zip": "13006"},
      {"city": "JACALTENANGO", "zip": "13007"},
      {"city": "SOLOMA", "zip": "13008"},
      {"city": "IXTAHUACAN", "zip": "13009"},
      {"city": "SANTA BARBARA", "zip": "13010"},
      {"city": "LA LIBERTAD", "zip": "13011"},
      {"city": "LA DEMOCRACIA", "zip": "13012"},
      {"city": "SAN MIGUEL ACATAN", "zip": "13013"},
      {"city": "SAN RAFAEL LA INDEPENDENCIA", "zip": "13014"},
      {"city": "TODOS SANTOS CUCHUMATAN", "zip": "13015"},
      {"city": "SAN JUAN ATITAN", "zip": "13016"},
      {"city": "SANTA EULALIA", "zip": "13017"},
      {"city": "SAN MATEO IXTATAN", "zip": "13018"},
      {"city": "COLOTENANGO", "zip": "13019"},
      {"city": "SAN SEBASTIAN HUEHUETENANGO", "zip": "13020"},
      {"city": "TECTITAN", "zip": "13021"},
      {"city": "CONCEPCION HUISTA", "zip": "13022"},
      {"city": "SAN JUAN IXCOY", "zip": "13023"},
      {"city": "SAN ANTONIO HUISTA", "zip": "13024"},
      {"city": "SAN SEBASTIAN COATAN", "zip": "13025"},
      {"city": "SANTA CRUZ BARILLAS", "zip": "13026"},
      {"city": "AGUACATAN", "zip": "13027"},
      {"city": "SAN RAFAEL PETZAL", "zip": "13028"},
      {"city": "SAN GASPAR IXCHIL", "zip": "13029"},
      {"city": "SANTIAGO CHIMALTENANGO", "zip": "13030"},
      {"city": "SANTA ANA HUISTA", "zip": "13031"},
      {"city": "UNION CANTINIL", "zip": "13032"}
    ],
    "QU": [
      {"city": "SANTA CRUZ DEL QUICHE", "zip": "14001"},
      {"city": "CHICHE", "zip": "14002"},
      {"city": "CHINIQUE", "zip": "14003"},
      {"city": "ZACUALPA", "zip": "14004"},
      {"city": "CHAJUL", "zip": "14005"},
      {"city": "CHICHICASTENANGO", "zip": "14006"},
      {"city": "PATZITE", "zip": "14007"},
      {"city": "SAN ANTONIO ILOTENANGO", "zip": "14008"},
      {"city": "SAN PEDRO JOCOPILAS", "zip": "14009"},
      {"city": "CUNEN", "zip": "14010"},
      {"city": "SAN JUAN COTZAL", "zip": "14011"},
      {"city": "JOYABAJ", "zip": "14012"},
      {"city": "NEBAJ", "zip": "14013"},
      {"city": "SAN ANDRES SAJCABAJA", "zip": "14014"},
      {"city": "USPANTAN", "zip": "14015"},
      {"city": "SACAPULAS", "zip": "14016"},
      {"city": "SAN BARTOLOME JOCOTENANGO", "zip": "14017"},
      {"city": "CANILLA", "zip": "14018"},
      {"city": "CHICAMAN", "zip": "14019"},
      {"city": "IXCAN", "zip": "14020"},
      {"city": "PACHALUM", "zip": "14021"}
    ],
    "BV": [
      {"city": "SALAMA", "zip": "15001"},
      {"city": "SAN MIGUEL CHICAJ", "zip": "15002"},
      {"city": "RABINAL", "zip": "15003"},
      {"city": "CUBULCO", "zip": "15004"},
      {"city": "GRANADOS", "zip": "15005"},
      {"city": "SANTA CRUZ EL CHOL", "zip": "15006"},
      {"city": "SAN JERONIMO", "zip": "15007"},
      {"city": "PURULHA", "zip": "15008"}
    ],
    "AV": [
      {"city": "COBAN", "zip": "16001"},
      {"city": "SANTA CRUZ VERAPAZ", "zip": "16002"},
      {"city": "SAN CRISTOBAL VERAPAZ", "zip": "16003"},
      {"city": "TACTIC", "zip": "16004"},
      {"city": "TAMAHU", "zip": "16005"},
      {"city": "SAN MIGUEL TUCURU", "zip": "16006"},
      {"city": "PANZOS", "zip": "16007"},
      {"city": "SENAHU", "zip": "16008"},
      {"city": "SAN PEDRO CARCHA", "zip": "16009"},
      {"city": "SAN JUAN CHAMELCO", "zip": "16010"},
      {"city": "LANQUIN", "zip": "16011"},
      {"city": "CAHABON", "zip": "16012"},
      {"city": "CHISEC", "zip": "16013"},
      {"city": "CHAHAL", "zip": "16014"},
      {"city": "FRAY BARTOLOME DE LAS CASAS", "zip": "16015"},
      {"city": "LA TINTA", "zip": "16016"},
      {"city": "RAXRUHA", "zip": "16017"}
    ],
    "PE": [
      {"city": "FLORES", "zip": "17001"},
      {"city": "SAN JOSE", "zip": "17002"},
      {"city": "SAN BENITO", "zip": "17003"},
      {"city": "SAN ANDRES", "zip": "17004"},
      {"city": "LA LIBERTAD", "zip": "17005"},
      {"city": "SAN FRANCISCO", "zip": "17006"},
      {"city": "SANTA ANA", "zip": "17007"},
      {"city": "DOLORES", "zip": "17008"},
      {"city": "SAN LUIS", "zip": "17009"},
      {"city": "SAYAXCHE", "zip": "17010"},
      {"city": "MELCHOR DE MENCOS", "zip": "17011"},
      {"city": "POPTUN", "zip": "17012"},
      {"city": "TIKAL", "zip": "17013"},
      {"city": "DOS LAGUNAS", "zip": "17014"},
      {"city": "SANTO TORIBIO", "zip": "17015"},
      {"city": "PASO CABALLOS", "zip": "17016"},
      {"city": "UAXACTUN", "zip": "17017"},
      {"city": "CARMELITA", "zip": "17018"},
      {"city": "MACHAQUILA", "zip": "17019"},
      {"city": "EL CHAL", "zip": "17020"},
      {"city": "MACANCHE", "zip": "17021"},
      {"city": "EL REMATE", "zip": "17022"},
      {"city": "LA FELICIDAD", "zip": "17023"},
      {"city": "EL NARANJO", "zip": "17024"},
      {"city": "SACPUY", "zip": "17025"},
      {"city": "PAXCAMAN", "zip": "17026"},
      {"city": "LAS CRUCES", "zip": "17027"},
      {"city": "SABANETA", "zip": "17028"},
      {"city": "SANTA ELENA", "zip": "17029"}
    ],
    "IZ": [
      {"city": "PUERTO BARRIOS", "zip": "18001"},
      {"city": "LIVINGSTON", "zip": "18002"},
      {"city": "EL ESTOR", "zip": "18003"},
      {"city": "MORALES", "zip": "18004"},
      {"city": "LOS AMATES", "zip": "18005"},
      {"city": "PLAYITAS", "zip": "18006"},
      {"city": "EL RICO", "zip": "18007"},
      {"city": "CAYUGA", "zip": "18008"},
      {"city": "QUIRIGUA", "zip": "18009"},
      {"city": "EL CINCHADO", "zip": "18010"},
      {"city": "LAS QUEBRADAS", "zip": "18011"},
      {"city": "ENTRE RIOS", "zip": "18012"},
      {"city": "SANTO TOMAS DE CASTILLA", "zip": "18013"},
      {"city": "EL MITCHAL", "zip": "18014"},
      {"city": "LAS VINAS", "zip": "18015"},
      {"city": "EL REFUGIO", "zip": "18016"},
      {"city": "SANTA INES", "zip": "18017"},
      {"city": "TENEDORES", "zip": "18018"},
      {"city": "SAN FELIPE", "zip": "18019"},
      {"city": "BANANERA", "zip": "18020"},
      {"city": "FRONTERAS", "zip": "18021"},
      {"city": "MARISCOS", "zip": "18022"},
      {"city": "BUENOS AIRES", "zip": "18023"}
    ],
    "ZA": [
      {"city": "ZACAPA", "zip": "19001"},
      {"city": "ESTANZUELA", "zip": "19002"},
      {"city": "RIO HONDO", "zip": "19003"},
      {"city": "GUALAN", "zip": "19004"},
      {"city": "TECULUTAN", "zip": "19005"},
      {"city": "USUMATLAN", "zip": "19006"},
      {"city": "CABANAS", "zip": "19007"},
      {"city": "SAN DIEGO", "zip": "19008"},
      {"city": "LA UNION", "zip": "19009"},
      {"city": "HUITE", "zip": "19010"},
      {"city": "LA REFORMA", "zip": "19011"},
      {"city": "SAN JOSE", "zip": "19012"},
      {"city": "SAN JORGE", "zip": "19013"},
      {"city": "SANTA ROSALIA", "zip": "19014"},
      {"city": "SANTA LUCIA", "zip": "19015"},
      {"city": "LA FRAGUA", "zip": "19016"},
      {"city": "SAN PABLO", "zip": "19017"},
      {"city": "SAN VICENTE", "zip": "19018"}
    ],
    "CQ": [
      {"city": "CHIQUIMULA", "zip": "20001"},
      {"city": "SAN JOSE LA ARADA", "zip": "20002"},
      {"city": "SAN JUAN ERMITA", "zip": "20003"},
      {"city": "JOCOTAN", "zip": "20004"},
      {"city": "CAMOTAN", "zip": "20005"},
      {"city": "OLOPA", "zip": "20006"},
      {"city": "ESQUIPULAS", "zip": "20007"},
      {"city": "CONCEPCION LAS MINAS", "zip": "20008"},
      {"city": "QUETZALTEPEQUE", "zip": "20009"},
      {"city": "SAN JACINTO", "zip": "20010"},
      {"city": "IPALA", "zip": "20011"},
      {"city": "ANGUIATU", "zip": "20012"},
      {"city": "EL AMATILLO", "zip": "20013"},
      {"city": "EL FLORIDO", "zip": "20014"},
      {"city": "SANTA ELENA", "zip": "20015"},
      {"city": "VALDO HONDO", "zip": "20016"},
      {"city": "SAN ESTEBAN", "zip": "20017"},
      {"city": "TIERRA COLORADA", "zip": "20018"},
      {"city": "AGUA CALIENTE", "zip": "20019"},
      {"city": "NUEVA ANGUIATU", "zip": "20020"}
    ],
    "JA": [
      {"city": "JALAPA", "zip": "21001"},
      {"city": "SAN PEDRO PINULA", "zip": "21002"},
      {"city": "SAN LUIS JILOTEPEQUE", "zip": "21003"},
      {"city": "SAN MANUEL CHAPARRON", "zip": "21004"},
      {"city": "SAN CARLOS ALZATATE", "zip": "21005"},
      {"city": "MONJAS", "zip": "21006"},
      {"city": "MATATESCUINTLA", "zip": "21007"},
      {"city": "LLANO GRANDE", "zip": "21008"}
    ],
    "JU": [
      {"city": "JUTIAPA", "zip": "22001"},
      {"city": "EL PROGRESO", "zip": "22002"},
      {"city": "SANTA CATARINA MITA", "zip": "22003"},
      {"city": "AGUA BLANCA", "zip": "22004"},
      {"city": "ASUNCION MITA", "zip": "22005"},
      {"city": "YUPILTEPEQUE", "zip": "22006"},
      {"city": "ATESCATEMPA", "zip": "22007"},
      {"city": "JEREZ", "zip": "22008"},
      {"city": "EL ADELANTO", "zip": "22009"},
      {"city": "ZAPOTITLAN", "zip": "22010"},
      {"city": "COMAPA", "zip": "22011"},
      {"city": "JALPATAGUA", "zip": "22012"},
      {"city": "CONGUACO", "zip": "22013"},
      {"city": "MOYUTA", "zip": "22014"},
      {"city": "PASACO", "zip": "22015"},
      {"city": "SAN JOSE ACATEMPA", "zip": "22016"},
      {"city": "QUEZADA", "zip": "22017"}
    ]
  }
} 